[Satellite]
VERSION=1.1
NAME=STARLINK-1369
NICKNAME=STARLINK-1369
TLE1=1 45540U 20025K   20141.58334491  .02827374  00000-0  40883-1 0  9999
TLE2=2 45540  52.9995 263.0191 0001821 308.7885 284.2755 15.52165565  1771
STATUS=0
